start=new Date('2022-10-09T00:00:00.000Z').valueOf();
sats=[{"RA_OF_ASC_NODE":"354.0893","OBJECT_NAME":"STARLINK-2437","EPHEMERIS_TYPE":"0","OBJECT_TYPE":"PAYLOAD","DECAY_DATE":null,"ARG_OF_PERICENTER":"57.6733","COUNTRY_CODE":"US","MEAN_MOTION_DOT":"-0.00000556","INCLINATION":"53.0543","BSTAR":"-0.00001841900000","TIME_SYSTEM":"UTC","GP_ID":"214505505","SITE":"AFETR","PERIAPSIS":"546.048","NORAD_CAT_ID":"48102","TLE_LINE2":"2 48102  53.0543 354.0893 0001698  57.6733 302.4420 15.06396508 84598","MEAN_ELEMENT_THEORY":"SGP4","EPOCH":"2022-10-08T16:41:04.980192","APOAPSIS":"548.400","CLASSIFICATION_TYPE":"U","PERIOD":"95.592","ELEMENT_SET_NO":"999","TLE_LINE1":"1 48102U 21027L   22281.69519653 -.00000556  00000-0 -18419-4 0  9991","MEAN_MOTION":"15.06396508","FILE":"3596607","REF_FRAME":"TEME","MEAN_MOTION_DDOT":"0.0000000000000","SEMIMAJOR_AXIS":"6925.359","REV_AT_EPOCH":"8459","OBJECT_ID":"2021-027L","CENTER_NAME":"EARTH","MEAN_ANOMALY":"302.4420","RCS_SIZE":"LARGE","ECCENTRICITY":"0.00016980","LAUNCH_DATE":"2021-04-07"},{"OBJECT_NAME":"STARLINK-2438","RA_OF_ASC_NODE":"354.9629","EPHEMERIS_TYPE":"0","COUNTRY_CODE":"US","MEAN_MOTION_DOT":"0.00001131","ARG_OF_PERICENTER":"38.7063","DECAY_DATE":null,"OBJECT_TYPE":"PAYLOAD","INCLINATION":"53.0568","GP_ID":"214474308","BSTAR":"0.00009482500000","TIME_SYSTEM":"UTC","PERIAPSIS":"545.867","SITE":"AFETR","TLE_LINE2":"2 48103  53.0568 354.9629 0001984  38.7063 321.4068 15.06391072 84563","NORAD_CAT_ID":"48103","EPOCH":"2022-10-08T12:09:00.765504","MEAN_ELEMENT_THEORY":"SGP4","CLASSIFICATION_TYPE":"U","APOAPSIS":"548.615","PERIOD":"95.593","ELEMENT_SET_NO":"999","MEAN_MOTION":"15.06391072","TLE_LINE1":"1 48103U 21027M   22281.50625886  .00001131  00000-0  94825-4 0  9991","FILE":"3596390","REV_AT_EPOCH":"8456","SEMIMAJOR_AXIS":"6925.376","MEAN_MOTION_DDOT":"0.0000000000000","REF_FRAME":"TEME","RCS_SIZE":"LARGE","CENTER_NAME":"EARTH","MEAN_ANOMALY":"321.4068","OBJECT_ID":"2021-027M","LAUNCH_DATE":"2021-04-07","ECCENTRICITY":"0.00019840"},{"COUNTRY_CODE":"US","ARG_OF_PERICENTER":"58.3510","MEAN_MOTION_DOT":"0.00002299","DECAY_DATE":null,"OBJECT_TYPE":"PAYLOAD","INCLINATION":"53.0555","OBJECT_NAME":"STARLINK-2439","RA_OF_ASC_NODE":"359.8942","EPHEMERIS_TYPE":"0","PERIAPSIS":"545.966","SITE":"AFETR","TLE_LINE2":"2 48104  53.0555 359.8942 0001824  58.3510 301.7656 15.06394852 84507","NORAD_CAT_ID":"48104","GP_ID":"214474559","BSTAR":"0.00017321000000","TIME_SYSTEM":"UTC","ELEMENT_SET_NO":"999","PERIOD":"95.592","MEAN_MOTION":"15.06394852","TLE_LINE1":"1 48104U 21027N   22281.51596374  .00002299  00000-0  17321-3 0  9993","EPOCH":"2022-10-08T12:22:59.267136","MEAN_ELEMENT_THEORY":"SGP4","CLASSIFICATION_TYPE":"U","APOAPSIS":"548.493","RCS_SIZE":"LARGE","CENTER_NAME":"EARTH","OBJECT_ID":"2021-027N","MEAN_ANOMALY":"301.7656","LAUNCH_DATE":"2021-04-07","ECCENTRICITY":"0.00018240","FILE":"3596390","REV_AT_EPOCH":"8450","SEMIMAJOR_AXIS":"6925.364","MEAN_MOTION_DDOT":"0.0000000000000","REF_FRAME":"TEME"},{"FILE":"3596607","REV_AT_EPOCH":"8530","SEMIMAJOR_AXIS":"6925.355","MEAN_MOTION_DDOT":"0.0000000000000","REF_FRAME":"TEME","RCS_SIZE":"LARGE","MEAN_ANOMALY":"314.2195","OBJECT_ID":"2021-027P","CENTER_NAME":"EARTH","LAUNCH_DATE":"2021-04-07","ECCENTRICITY":"0.00017470","EPOCH":"2022-10-08T18:07:20.051616","MEAN_ELEMENT_THEORY":"SGP4","CLASSIFICATION_TYPE":"U","APOAPSIS":"548.430","PERIOD":"95.592","ELEMENT_SET_NO":"999","MEAN_MOTION":"15.06397768","TLE_LINE1":"1 48105U 21027P   22281.75509319 -.00000242  00000-0  26378-5 0  9994","GP_ID":"214505255","TIME_SYSTEM":"UTC","BSTAR":"0.00000263780000","PERIAPSIS":"546.011","SITE":"AFETR","TLE_LINE2":"2 48105  53.0538 303.8270 0001747  45.8938 314.2195 15.06397768 85306","NORAD_CAT_ID":"48105","OBJECT_NAME":"STARLINK-2440","RA_OF_ASC_NODE":"303.8270","EPHEMERIS_TYPE":"0","MEAN_MOTION_DOT":"-0.00000242","COUNTRY_CODE":"US","ARG_OF_PERICENTER":"45.8938","OBJECT_TYPE":"PAYLOAD","DECAY_DATE":null,"INCLINATION":"53.0538"},{"ARG_OF_PERICENTER":"56.9689","COUNTRY_CODE":"US","MEAN_MOTION_DOT":"-0.00000264","OBJECT_TYPE":"PAYLOAD","DECAY_DATE":null,"INCLINATION":"53.0567","OBJECT_NAME":"STARLINK-2442","RA_OF_ASC_NODE":"354.5010","EPHEMERIS_TYPE":"0","PERIAPSIS":"546.003","SITE":"AFETR","TLE_LINE2":"2 48106  53.0567 354.5010 0001792  56.9689 303.1472 15.06389903 84586","NORAD_CAT_ID":"48106","GP_ID":"214506005","BSTAR":"0.00000116900000","TIME_SYSTEM":"UTC","ELEMENT_SET_NO":"999","PERIOD":"95.593","MEAN_MOTION":"15.06389903","TLE_LINE1":"1 48106U 21027Q   22281.60674421 -.00000264  00000-0  11690-5 0  9991","EPOCH":"2022-10-08T14:33:42.699744","MEAN_ELEMENT_THEORY":"SGP4","CLASSIFICATION_TYPE":"U","APOAPSIS":"548.486","RCS_SIZE":"LARGE","OBJECT_ID":"2021-027Q","CENTER_NAME":"EARTH","MEAN_ANOMALY":"303.1472","LAUNCH_DATE":"2021-04-07","ECCENTRICITY":"0.00017920","FILE":"3596607","REV_AT_EPOCH":"8458","SEMIMAJOR_AXIS":"6925.380","MEAN_MOTION_DDOT":"0.0000000000000","REF_FRAME":"TEME"},{"FILE":"3596607","MEAN_MOTION_DDOT":"0.0000000000000","REF_FRAME":"TEME","REV_AT_EPOCH":"8459","SEMIMAJOR_AXIS":"6925.379","MEAN_ANOMALY":"293.3232","CENTER_NAME":"EARTH","OBJECT_ID":"2021-027R","RCS_SIZE":"LARGE","ECCENTRICITY":"0.00015690","LAUNCH_DATE":"2021-04-07","MEAN_ELEMENT_THEORY":"SGP4","EPOCH":"2022-10-08T16:30:28.461024","CLASSIFICATION_TYPE":"U","APOAPSIS":"548.331","PERIOD":"95.593","ELEMENT_SET_NO":"999","TLE_LINE1":"1 48107U 21027R   22281.68782941  .00003509  00000-0  25444-3 0  9991","MEAN_MOTION":"15.06389989","BSTAR":"0.00025444000000","TIME_SYSTEM":"UTC","GP_ID":"214504752","SITE":"AFETR","PERIAPSIS":"546.158","NORAD_CAT_ID":"48107","TLE_LINE2":"2 48107  53.0547 354.1238 0001569  66.7922 293.3232 15.06389989 84593","RA_OF_ASC_NODE":"354.1238","OBJECT_NAME":"STARLINK-2443","EPHEMERIS_TYPE":"0","OBJECT_TYPE":"PAYLOAD","DECAY_DATE":null,"MEAN_MOTION_DOT":"0.00003509","COUNTRY_CODE":"US","ARG_OF_PERICENTER":"66.7922","INCLINATION":"53.0547"},{"TLE_LINE1":"1 48108U 21027S   22281.72745974 -.00001242  00000-0 -64519-4 0  9993","MEAN_MOTION":"15.06388341","ELEMENT_SET_NO":"999","PERIOD":"95.593","APOAPSIS":"548.456","CLASSIFICATION_TYPE":"U","MEAN_ELEMENT_THEORY":"SGP4","EPOCH":"2022-10-08T17:27:32.521536","ECCENTRICITY":"0.00017420","LAUNCH_DATE":"2021-04-07","CENTER_NAME":"EARTH","OBJECT_ID":"2021-027S","MEAN_ANOMALY":"306.6457","RCS_SIZE":"LARGE","REF_FRAME":"TEME","MEAN_MOTION_DDOT":"0.0000000000000","SEMIMAJOR_AXIS":"6925.384","REV_AT_EPOCH":"8445","FILE":"3596607","INCLINATION":"53.0557","OBJECT_TYPE":"PAYLOAD","DECAY_DATE":null,"COUNTRY_CODE":"US","ARG_OF_PERICENTER":"53.4692","MEAN_MOTION_DOT":"-0.00001242","EPHEMERIS_TYPE":"0","RA_OF_ASC_NODE":"3.9450","OBJECT_NAME":"STARLINK-2444","NORAD_CAT_ID":"48108","TLE_LINE2":"2 48108  53.0557   3.9450 0001742  53.4692 306.6457 15.06388341 84453","SITE":"AFETR","PERIAPSIS":"546.043","TIME_SYSTEM":"UTC","BSTAR":"-0.00006451900000","GP_ID":"214504505"},{"RA_OF_ASC_NODE":"14.7762","OBJECT_NAME":"STARLINK-2445","EPHEMERIS_TYPE":"0","OBJECT_TYPE":"PAYLOAD","DECAY_DATE":null,"ARG_OF_PERICENTER":"42.2674","COUNTRY_CODE":"US","MEAN_MOTION_DOT":"-0.00000440","INCLINATION":"53.0560","BSTAR":"-0.00001060300000","TIME_SYSTEM":"UTC","GP_ID":"214480285","SITE":"AFETR","PERIAPSIS":"545.970","NORAD_CAT_ID":"48109","TLE_LINE2":"2 48109  53.0560  14.7762 0001777  42.2674 317.8451 15.06404364 83897","MEAN_ELEMENT_THEORY":"SGP4","EPOCH":"2022-10-08T13:00:48.177792","APOAPSIS":"548.431","CLASSIFICATION_TYPE":"U","PERIOD":"95.592","ELEMENT_SET_NO":"999","TLE_LINE1":"1 48109U 21027T   22281.54222428 -.00000440  00000-0 -10603-4 0  9992","MEAN_MOTION":"15.06404364","FILE":"3596449","REF_FRAME":"TEME","MEAN_MOTION_DDOT":"0.0000000000000","SEMIMAJOR_AXIS":"6925.335","REV_AT_EPOCH":"8389","CENTER_NAME":"EARTH","OBJECT_ID":"2021-027T","MEAN_ANOMALY":"317.8451","RCS_SIZE":"LARGE","ECCENTRICITY":"0.00017770","LAUNCH_DATE":"2021-04-07"},{"PERIOD":"95.593","ELEMENT_SET_NO":"999","TLE_LINE1":"1 48110U 21027U   22281.58370624 -.00000869  00000-0 -39488-4 0  9997","MEAN_MOTION":"15.06389487","MEAN_ELEMENT_THEORY":"SGP4","EPOCH":"2022-10-08T14:00:32.219136","APOAPSIS":"548.319","CLASSIFICATION_TYPE":"U","OBJECT_ID":"2021-027U","CENTER_NAME":"EARTH","MEAN_ANOMALY":"304.1983","RCS_SIZE":"LARGE","ECCENTRICITY":"0.00015500","LAUNCH_DATE":"2021-04-07","FILE":"3596607","REF_FRAME":"TEME","MEAN_MOTION_DDOT":"0.0000000000000","SEMIMAJOR_AXIS":"6925.381","REV_AT_EPOCH":"8444","OBJECT_TYPE":"PAYLOAD","DECAY_DATE":null,"MEAN_MOTION_DOT":"-0.00000869","COUNTRY_CODE":"US","ARG_OF_PERICENTER":"55.9153","INCLINATION":"53.0566","RA_OF_ASC_NODE":"4.5895","OBJECT_NAME":"STARLINK-2447","EPHEMERIS_TYPE":"0","SITE":"AFETR","PERIAPSIS":"546.172","NORAD_CAT_ID":"48110","TLE_LINE2":"2 48110  53.0566   4.5895 0001550  55.9153 304.1983 15.06389487 84440","TIME_SYSTEM":"UTC","BSTAR":"-0.00003948800000","GP_ID":"214505506"},{"CLASSIFICATION_TYPE":"U","APOAPSIS":"548.373","MEAN_ELEMENT_THEORY":"SGP4","EPOCH":"2022-10-08T13:49:54.181920","TLE_LINE1":"1 48111U 21027V   22281.57632155  .00002222  00000-0  16797-3 0  9997","MEAN_MOTION":"15.06409342","ELEMENT_SET_NO":"999","PERIOD":"95.592","MEAN_MOTION_DDOT":"0.0000000000000","REF_FRAME":"TEME","REV_AT_EPOCH":"8444","SEMIMAJOR_AXIS":"6925.320","FILE":"3596607","ECCENTRICITY":"0.00017160","LAUNCH_DATE":"2021-04-07","MEAN_ANOMALY":"297.3584","CENTER_NAME":"EARTH","OBJECT_ID":"2021-027V","RCS_SIZE":"LARGE","EPHEMERIS_TYPE":"0","RA_OF_ASC_NODE":"4.6050","OBJECT_NAME":"STARLINK-2448","INCLINATION":"53.0553","OBJECT_TYPE":"PAYLOAD","DECAY_DATE":null,"ARG_OF_PERICENTER":"62.7580","COUNTRY_CODE":"US","MEAN_MOTION_DOT":"0.00002222","BSTAR":"0.00016797000000","TIME_SYSTEM":"UTC","GP_ID":"214504253","NORAD_CAT_ID":"48111","TLE_LINE2":"2 48111  53.0553   4.6050 0001716  62.7580 297.3584 15.06409342 84448","SITE":"AFETR","PERIAPSIS":"545.997"}];
